STARLINK-4277           
1 53009U 22076Z   26068.44006928 -.00000456  00000+0 -10548-4 0  9997
2 53009  53.2171  85.2397 0001461  93.6463 266.4696 15.08837250202940
STRIX-5                 
1 65971U 25229A   26068.48916036  .00006129  00000+0  44900-3 0  9994
2 65971  41.9265 119.8574 0036941 120.2079 240.2413 15.03509399 21964
