[{"OBJECT_NAME":"STARLINK-4277","OBJECT_ID":"2022-076Z","EPOCH":"2026-03-09T10:33:41.985792","MEAN_MOTION":15.0883725,"ECCENTRICITY":0.0001461,"INCLINATION":53.2171,"RA_OF_ASC_NODE":85.2397,"ARG_OF_PERICENTER":93.6463,"MEAN_ANOMALY":266.4696,"EPHEMERIS_TYPE":0,"CLASSIFICATION_TYPE":"U","NORAD_CAT_ID":53009,"ELEMENT_SET_NO":999,"REV_AT_EPOCH":20294,"BSTAR":-1.054819e-5,"MEAN_MOTION_DOT":-4.56e-6,"MEAN_MOTION_DDOT":0},{"OBJECT_NAME":"STRIX-5","OBJECT_ID":"2025-229A","EPOCH":"2026-03-09T11:44:23.455104","MEAN_MOTION":15.03509399,"ECCENTRICITY":0.00369417,"INCLINATION":41.9265,"RA_OF_ASC_NODE":119.8574,"ARG_OF_PERICENTER":120.2079,"MEAN_ANOMALY":240.2413,"EPHEMERIS_TYPE":0,"CLASSIFICATION_TYPE":"U","NORAD_CAT_ID":65971,"ELEMENT_SET_NO":999,"REV_AT_EPOCH":2196,"BSTAR":0.00044899589,"MEAN_MOTION_DOT":6.129e-5,"MEAN_MOTION_DDOT":0}]
